STARLINK-1964
1 47565U 21009T   26061.11245351  .00100979  00000+0  98782-3 0  9998
2 47565  53.0474   6.4579 0004453 296.9091  63.1468 15.65358005280348
STARLINK-1928
1 46758U 20074V   26061.11205559  .00092154  00000+0  90606-3 0  9990
2 46758  53.0465 321.8808 0003837  38.8959 321.2331 15.65274142296018
STARLINK-1795
1 46696U 20073AC  26061.16668981  .00034183  00000+0  34362-3 0  9992
2 46696  53.0418 217.8387 0003177 111.3013 256.2158 15.65150679  5962
STARLINK-1991
1 47587U 21009AR  26061.15135584  .00099196  00000+0  98213-3 0  9999
2 47587  53.0461   9.8084 0005259  49.9462 310.2013 15.65059395280307
STARLINK-1736
1 46585U 20070BF  26060.56786938  .00104726  00000+0  10414-2 0  9994
2 46585  53.0441 155.8963 0001504 145.1332 214.9781 15.64937701299086
STARLINK-1764
1 46343U 20062U   26061.05915318  .00102813  00000+0  10239-2 0  9998
2 46343  53.0466 354.5678 0000833  14.7187 345.3851 15.64910105303957
STARLINK-1280
1 45388U 20019AE  26061.25002314 -.00002848  00000+0 -23437-4 0  9998
2 45388  53.0436 159.0023 0001354 124.2197 275.7790 15.64530711  5937
STARLINK-2032
1 47649U 21012AF  26061.16668981  .00114262  00000+0  11825-2 0  9990
2 47649  53.0424  50.8640 0010683  51.6554  17.5293 15.63823280  5962
